[{"OBJECT_NAME":"JILIN-1 05","OBJECT_ID":"2017-074B","EPOCH":"2026-03-09T21:56:30.612480","MEAN_MOTION":15.3245271,"ECCENTRICITY":0.00045948,"INCLINATION":97.4781,"RA_OF_ASC_NODE":173.8936,"ARG_OF_PERICENTER":206.4038,"MEAN_ANOMALY":153.6971,"EPHEMERIS_TYPE":0,"CLASSIFICATION_TYPE":"U","NORAD_CAT_ID":43023,"ELEMENT_SET_NO":999,"REV_AT_EPOCH":45879,"BSTAR":0.00026108793,"MEAN_MOTION_DOT":8.104e-5,"MEAN_MOTION_DDOT":0},{"OBJECT_NAME":"STARLINK-31984","OBJECT_ID":"2024-111C","EPOCH":"2026-03-09T20:05:31.997760","MEAN_MOTION":15.30204687,"ECCENTRICITY":5.745e-5,"INCLINATION":53.1607,"RA_OF_ASC_NODE":75.1119,"ARG_OF_PERICENTER":114.5206,"MEAN_ANOMALY":245.5855,"EPHEMERIS_TYPE":0,"CLASSIFICATION_TYPE":"U","NORAD_CAT_ID":60018,"ELEMENT_SET_NO":999,"REV_AT_EPOCH":9890,"BSTAR":-5.5753897e-5,"MEAN_MOTION_DOT":-2.01e-5,"MEAN_MOTION_DDOT":0}]
